{"type": "FeatureCollection", "features": [ {"type": "Feature", "properties": {"norad_id": 30096, "name": "FENGYUN 1C DEB", "group": "fengyun-1c-debris", "lat": -77.64778633502996, "lon": -145.78562181768402, "alt_km": 775.3950080532622, "timestamp": "2025-12-27T12:55:14.779262+00:00", "meta": {"OBJECT_NAME": "FENGYUN 1C DEB", "OBJECT_ID": "1999-025QZ", "EPOCH": "2025-12-27T04:59:47.626368", "MEAN_MOTION": 14.31717689, "ECCENTRICITY": 0.00797679, "INCLINATION": 99.1464, "RA_OF_ASC_NODE": 81.2321, "ARG_OF_PERICENTER": 190.4189, "MEAN_ANOMALY": 169.5343, "EPHEMERIS_TYPE": 0, "CLASSIFICATION_TYPE": "U", "NORAD_CAT_ID": 30096, "ELEMENT_SET_NO": 999, "REV_AT_EPOCH": 98753, "BSTAR": 0.00036554374, "MEAN_MOTION_DOT": 9.62e-06, "MEAN_MOTION_DDOT": 0}, "tle": {"line1": "1 30096U 99025QZ  25361.20819012  .00000962  00000+0  36554-3 0  9995", "line2": "2 30096  99.1464  81.2321 0079767 190.4189 169.5343 14.31717689987538"}}, "geometry": {"type": "Point", "coordinates": [-145.78562181768402, -77.64778633502996]}}, {"type": "Feature", "properties": {"norad_id": 30099, "name": "FENGYUN 1C DEB", "group": "fengyun-1c-debris", "lat": -15.355980652070139, "lon": -108.89519145434858, "alt_km": 765.8017972690141, "timestamp": "2025-12-27T12:55:14.779273+00:00", "meta": {"OBJECT_NAME": "FENGYUN 1C DEB", "OBJECT_ID": "1999-025RC", "EPOCH": "2025-12-27T03:53:43.666944", "MEAN_MOTION": 14.25958927, "ECCENTRICITY": 0.00617705, "INCLINATION": 98.5388, "RA_OF_ASC_NODE": 73.103, "ARG_OF_PERICENTER": 202.244, "MEAN_ANOMALY": 223.8827, "EPHEMERIS_TYPE": 0, "CLASSIFICATION_TYPE": "U", "NORAD_CAT_ID": 30099, "ELEMENT_SET_NO": 999, "REV_AT_EPOCH": 98395, "BSTAR": 0.00034969571, "MEAN_MOTION_DOT": 8.08e-06, "MEAN_MOTION_DDOT": 0}, "tle": {"line1": "1 30099U 99025RC  25361.16231096  .00000808  00000+0  34970-3 0  9992", "line2": "2 30099  98.5388  73.1030 0061770 202.2440 223.8827 14.25958927983951"}}, "geometry": {"type": "Point", "coordinates": [-108.89519145434858, -15.355980652070139]}}, {"type": "Feature", "properties": {"norad_id": 30102, "name": "FENGYUN 1C DEB", "group": "fengyun-1c-debris", "lat": 5.295254635211551, "lon": -170.63191904837066, "alt_km": 900.0668997537268, "timestamp": "2025-12-27T12:55:14.779284+00:00", "meta": {"OBJECT_NAME": "FENGYUN 1C DEB", "OBJECT_ID": "1999-025RF", "EPOCH": "2025-12-27T00:33:23.172768", "MEAN_MOTION": 14.22151676, "ECCENTRICITY": 0.01409008, "INCLINATION": 98.3791, "RA_OF_ASC_NODE": 8.0956, "ARG_OF_PERICENTER": 318.4004, "MEAN_ANOMALY": 101.0349, "EPHEMERIS_TYPE": 0, "CLASSIFICATION_TYPE": "U", "NORAD_CAT_ID": 30102, "ELEMENT_SET_NO": 999, "REV_AT_EPOCH": 98161, "BSTAR": 0.00033710941, "MEAN_MOTION_DOT": 7.84e-06, "MEAN_MOTION_DDOT": 0}, "tle": {"line1": "1 30102U 99025RF  25361.02318487  .00000784  00000+0  33711-3 0  9997", "line2": "2 30102  98.3791   8.0956 0140900 318.4004 101.0349 14.22151676981615"}}, "geometry": {"type": "Point", "coordinates": [-170.63191904837066, 5.295254635211551]}}, {"type": "Feature", "properties": {"norad_id": 30103, "name": "FENGYUN 1C DEB", "group": "fengyun-1c-debris", "lat": -37.987477457633744, "lon": -8.894455182172226, "alt_km": 835.694844138523, "timestamp": "2025-12-27T12:55:14.779295+00:00", "meta": {"OBJECT_NAME": "FENGYUN 1C DEB", "OBJECT_ID": "1999-025RG", "EPOCH": "2025-12-27T04:58:45.156576", "MEAN_MOTION": 14.24889254, "ECCENTRICITY": 0.0064291, "INCLINATION": 99.2465, "RA_OF_ASC_NODE": 343.4485, "ARG_OF_PERICENTER": 79.0999, "MEAN_ANOMALY": 346.646, "EPHEMERIS_TYPE": 0, "CLASSIFICATION_TYPE": "U", "NORAD_CAT_ID": 30103, "ELEMENT_SET_NO": 999, "REV_AT_EPOCH": 98125, "BSTAR": 0.00052649895, "MEAN_MOTION_DOT": 1.208e-05, "MEAN_MOTION_DDOT": 0}, "tle": {"line1": "1 30103U 99025RG  25361.20746709  .00001208  00000+0  52650-3 0  9995", "line2": "2 30103  99.2465 343.4485 0064291  79.0999 346.6460 14.24889254981251"}}, "geometry": {"type": "Point", "coordinates": [-8.894455182172226, -37.987477457633744]}}, {"type": "Feature", "properties": {"norad_id": 30104, "name": "FENGYUN 1C DEB", "group": "fengyun-1c-debris", "lat": -31.49322181170276, "lon": 12.75617982826792, "alt_km": 856.5508810947758, "timestamp": "2025-12-27T12:55:14.779305+00:00", "meta": {"OBJECT_NAME": "FENGYUN 1C DEB", "OBJECT_ID": "1999-025RH", "EPOCH": "2025-12-27T00:50:37.270176", "MEAN_MOTION": 14.25712664, "ECCENTRICITY": 0.00741744, "INCLINATION": 98.3594, "RA_OF_ASC_NODE": 197.4445, "ARG_OF_PERICENTER": 66.4966, "MEAN_ANOMALY": 83.5095, "EPHEMERIS_TYPE": 0, "CLASSIFICATION_TYPE": "U", "NORAD_CAT_ID": 30104, "ELEMENT_SET_NO": 999, "REV_AT_EPOCH": 98096, "BSTAR": 0.0007350807, "MEAN_MOTION_DOT": 1.755e-05, "MEAN_MOTION_DDOT": 0}, "tle": {"line1": "1 30104U 99025RH  25361.03515359  .00001755  00000+0  73508-3 0  9994", "line2": "2 30104  98.3594 197.4445 0074174  66.4966  83.5095 14.25712664980962"}}, "geometry": {"type": "Point", "coordinates": [12.75617982826792, -31.49322181170276]}}, {"type": "Feature", "properties": {"norad_id": 30105, "name": "FENGYUN 1C DEB", "group": "fengyun-1c-debris", "lat": 80.12487060802137, "lon": -132.48230413353147, "alt_km": 747.041232186888, "timestamp": "2025-12-27T12:55:14.779316+00:00", "meta": {"OBJECT_NAME": "FENGYUN 1C DEB", "OBJECT_ID": "1999-025RJ", "EPOCH": "2025-12-26T22:58:34.525920", "MEAN_MOTION": 14.21429055, "ECCENTRICITY": 0.0199395, "INCLINATION": 98.5948, "RA_OF_ASC_NODE": 346.6334, "ARG_OF_PERICENTER": 32.9244, "MEAN_ANOMALY": 328.4171, "EPHEMERIS_TYPE": 0, "CLASSIFICATION_TYPE": "U", "NORAD_CAT_ID": 30105, "ELEMENT_SET_NO": 999, "REV_AT_EPOCH": 97964, "BSTAR": 0.0005176, "MEAN_MOTION_DOT": 1.339e-05, "MEAN_MOTION_DDOT": 0}, "tle": {"line1": "1 30105U 99025RJ  25360.95734405  .00001339  00000+0  51760-3 0  9994", "line2": "2 30105  98.5948 346.6334 0199395  32.9244 328.4171 14.21429055979647"}}, "geometry": {"type": "Point", "coordinates": [-132.48230413353147, 80.12487060802137]}}, {"type": "Feature", "properties": {"norad_id": 30106, "name": "FENGYUN 1C DEB", "group": "fengyun-1c-debris", "lat": -72.65832912585913, "lon": 60.454097081136595, "alt_km": 626.7456730669564, "timestamp": "2025-12-27T12:55:14.779326+00:00", "meta": {"OBJECT_NAME": "FENGYUN 1C DEB", "OBJECT_ID": "1999-025RK", "EPOCH": "2025-12-27T07:30:25.819776", "MEAN_MOTION": 14.86188155, "ECCENTRICITY": 0.00478523, "INCLINATION": 98.9233, "RA_OF_ASC_NODE": 270.4106, "ARG_OF_PERICENTER": 148.6887, "MEAN_ANOMALY": 339.6916, "EPHEMERIS_TYPE": 0, "CLASSIFICATION_TYPE": "U", "NORAD_CAT_ID": 30106, "ELEMENT_SET_NO": 999, "REV_AT_EPOCH": 98761, "BSTAR": 0.0045485165, "MEAN_MOTION_DOT": 0.00040925, "MEAN_MOTION_DDOT": 0}, "tle": {"line1": "1 30106U 99025RK  25361.31279884  .00040925  00000+0  45485-2 0  9991", "line2": "2 30106  98.9233 270.4106 0047852 148.6887 339.6916 14.86188155987619"}}, "geometry": {"type": "Point", "coordinates": [60.454097081136595, -72.65832912585913]}}, {"type": "Feature", "properties": {"norad_id": 30107, "name": "FENGYUN 1C DEB", "group": "fengyun-1c-debris", "lat": -8.667539141872085, "lon": 59.67996761578177, "alt_km": 890.370697606626, "timestamp": "2025-12-27T12:55:14.779337+00:00", "meta": {"OBJECT_NAME": "FENGYUN 1C DEB", "OBJECT_ID": "1999-025RL", "EPOCH": "2025-12-27T02:46:34.164480", "MEAN_MOTION": 14.14431223, "ECCENTRICITY": 0.01265936, "INCLINATION": 98.8449, "RA_OF_ASC_NODE": 57.9012, "ARG_OF_PERICENTER": 234.4486, "MEAN_ANOMALY": 124.4832, "EPHEMERIS_TYPE": 0, "CLASSIFICATION_TYPE": "U", "NORAD_CAT_ID": 30107, "ELEMENT_SET_NO": 999, "REV_AT_EPOCH": 97764, "BSTAR": 0.00016052867, "MEAN_MOTION_DOT": 2.87e-06, "MEAN_MOTION_DDOT": 0}, "tle": {"line1": "1 30107U 99025RL  25361.11567320  .00000287  00000+0  16053-3 0  9992", "line2": "2 30107  98.8449  57.9012 0126593 234.4486 124.4832 14.14431223977648"}}, "geometry": {"type": "Point", "coordinates": [59.67996761578177, -8.667539141872085]}}, {"type": "Feature", "properties": {"norad_id": 30108, "name": "FENGYUN 1C DEB", "group": "fengyun-1c-debris", "lat": 41.36933807225476, "lon": -20.69561729787989, "alt_km": 763.3897580491393, "timestamp": "2025-12-27T12:55:14.779347+00:00", "meta": {"OBJECT_NAME": "FENGYUN 1C DEB", "OBJECT_ID": "1999-025RM", "EPOCH": "2025-12-26T21:44:35.307744", "MEAN_MOTION": 14.17201731, "ECCENTRICITY": 0.0196847, "INCLINATION": 98.6614, "RA_OF_ASC_NODE": 346.4025, "ARG_OF_PERICENTER": 341.502, "MEAN_ANOMALY": 73.9012, "EPHEMERIS_TYPE": 0, "CLASSIFICATION_TYPE": "U", "NORAD_CAT_ID": 30108, "ELEMENT_SET_NO": 999, "REV_AT_EPOCH": 97799, "BSTAR": 0.00050725, "MEAN_MOTION_DOT": 1.192e-05, "MEAN_MOTION_DDOT": 0}, "tle": {"line1": "1 30108U 99025RM  25360.90596421  .00001192  00000+0  50725-3 0  9993", "line2": "2 30108  98.6614 346.4025 0196847 341.5020  73.9012 14.17201731977992"}}, "geometry": {"type": "Point", "coordinates": [-20.69561729787989, 41.36933807225476]}}, {"type": "Feature", "properties": {"norad_id": 30109, "name": "FENGYUN 1C DEB", "group": "fengyun-1c-debris", "lat": 9.74891321585525, "lon": 175.9050775594696, "alt_km": 720.7604482822107, "timestamp": "2025-12-27T12:55:14.779358+00:00", "meta": {"OBJECT_NAME": "FENGYUN 1C DEB", "OBJECT_ID": "1999-025RN", "EPOCH": "2025-12-27T05:24:11.297664", "MEAN_MOTION": 14.17570542, "ECCENTRICITY": 0.01678657, "INCLINATION": 98.5087, "RA_OF_ASC_NODE": 354.1311, "ARG_OF_PERICENTER": 190.3978, "MEAN_ANOMALY": 182.6499, "EPHEMERIS_TYPE": 0, "CLASSIFICATION_TYPE": "U", "NORAD_CAT_ID": 30109, "ELEMENT_SET_NO": 999, "REV_AT_EPOCH": 97757, "BSTAR": 0.00032004001, "MEAN_MOTION_DOT": 7.05e-06, "MEAN_MOTION_DDOT": 0}, "tle": {"line1": "1 30109U 99025RN  25361.22513076  .00000705  00000+0  32004-3 0  9994", "line2": "2 30109  98.5087 354.1311 0167865 190.3978 182.6499 14.17570542977570"}}, "geometry": {"type": "Point", "coordinates": [175.9050775594696, 9.74891321585525]}}]}